QIANFAN-113             
1 68640U 26075E   26201.25320260  .00000116  00000+0  16032-3 0  9997
2 68640  88.9922 317.6216 0002038 108.1775 251.9599 13.51019299 14276
QIANFAN-114             
1 68641U 26075F   26201.26140020  .00000104  00000+0  14287-3 0  9990
2 68641  88.9917 317.6384 0002081 104.9635 255.1747 13.51018001 14264
QIANFAN-115             
1 68642U 26075G   26201.14200877  .00000117  00000+0  16229-3 0  9997
2 68642  88.9917 317.6578 0002238 107.0303 253.1093 13.51014759 14246
QIANFAN-116             
1 68643U 26075H   26201.20372981  .00000122  00000+0  16979-3 0  9999
2 68643  88.9910 317.6092 0002081 114.9596 245.1772 13.51015313 14262
QIANFAN-117             
1 68644U 26075J   26201.26544426  .00000108  00000+0  14864-3 0  9996
2 68644  88.9915 317.6201 0002222 110.6120 249.5270 13.51013224 14274
QIANFAN-118             
1 68645U 26075K   26201.22430315  .00000110  00000+0  15141-3 0  9996
2 68645  88.9920 317.6339 0001981 103.3821 256.7551 13.51015082 14266
QIANFAN-119             
1 68646U 26075L   26201.27370237  .00000113  00000+0  15712-3 0  9995
2 68646  88.9920 317.6245 0002344 111.7050 248.4351 13.51021353 14279
QIANFAN-120             
1 68647U 26075M   26201.21209489  .00000122  00000+0  16976-3 0  9993
2 68647  88.9921 317.6163 0002485 111.3075 248.8342 13.51021878 14275
QIANFAN-121             
1 68648U 26075N   26201.31074631  .00000119  00000+0  16503-3 0  9996
2 68648  88.9919 317.6105 0002057 103.2742 256.8639 13.51013929 14282
QIANFAN-122             
1 68649U 26075P   26201.22856144  .00000079  00000+0  10342-3 0  9994
2 68649  88.9918 317.6166 0002264 112.6056 247.5335 13.51017452 14264
QIANFAN-123             
1 68650U 26075Q   26201.26975423  .00000107  00000+0  14711-3 0  9998
2 68650  88.9915 317.6014 0002415 116.6111 243.5288 13.51015928 14257
QIANFAN-124             
1 68651U 26075R   26201.22033956  .00000107  00000+0  14639-3 0  9990
2 68651  88.9917 317.6162 0002287 114.3722 245.7668 13.51017175 14278
QIANFAN-125             
1 68652U 26075S   26201.23257532  .00000113  00000+0  15576-3 0  9998
2 68652  88.9917 317.6171 0002029 103.8671 256.2706 13.51014108 14272
QIANFAN-126             
1 68653U 26075T   26201.24086313  .00000123  00000+0  17136-3 0  9992
2 68653  88.9921 317.5832 0002426 116.1416 243.9985 13.51019213 14292
QIANFAN-127             
1 69073U 26104A   26200.21999134 -.01743515  00000+0 -27854+1 0  9999
2 69073  88.9915 338.1951 0010486  13.9333 346.2106 13.53173799  9489
QIANFAN-128             
1 69074U 26104B   26199.18002306 -.01942531  00000+0 -33012+1 0  9991
2 69074  88.9887 338.3350 0009643 351.9012   8.1982 13.49707511  9324
