{"fetched_at":"2026-07-20T18:28:58.427Z","source":"https://celestrak.org/NORAD/elements/gp.php?GROUP=qianfan&FORMAT=JSON","constellation":"qianfan","records":[{"OBJECT_NAME":"QIANFAN-113","OBJECT_ID":"2026-075E","EPOCH":"2026-07-20T06:04:36.704640","CLASSIFICATION_TYPE":"U","MEAN_MOTION":13.51019299,"ECCENTRICITY":0.00020384,"INCLINATION":88.9922,"RA_OF_ASC_NODE":317.6216,"ARG_OF_PERICENTER":108.1775,"MEAN_ANOMALY":251.9599,"EPHEMERIS_TYPE":0,"NORAD_CAT_ID":68640,"ELEMENT_SET_NO":999,"REV_AT_EPOCH":1427,"BSTAR":0.00016031867,"MEAN_MOTION_DOT":0.00000116,"MEAN_MOTION_DDOT":0},{"OBJECT_NAME":"QIANFAN-114","OBJECT_ID":"2026-075F","EPOCH":"2026-07-20T06:16:24.977280","CLASSIFICATION_TYPE":"U","MEAN_MOTION":13.51018001,"ECCENTRICITY":0.00020818,"INCLINATION":88.9917,"RA_OF_ASC_NODE":317.6384,"ARG_OF_PERICENTER":104.9635,"MEAN_ANOMALY":255.1747,"EPHEMERIS_TYPE":0,"NORAD_CAT_ID":68641,"ELEMENT_SET_NO":999,"REV_AT_EPOCH":1426,"BSTAR":0.00014287411,"MEAN_MOTION_DOT":0.00000104,"MEAN_MOTION_DDOT":0},{"OBJECT_NAME":"QIANFAN-115","OBJECT_ID":"2026-075G","EPOCH":"2026-07-20T03:24:29.557728","CLASSIFICATION_TYPE":"U","MEAN_MOTION":13.51014759,"ECCENTRICITY":0.00022384,"INCLINATION":88.9917,"RA_OF_ASC_NODE":317.6578,"ARG_OF_PERICENTER":107.0303,"MEAN_ANOMALY":253.1093,"EPHEMERIS_TYPE":0,"NORAD_CAT_ID":68642,"ELEMENT_SET_NO":999,"REV_AT_EPOCH":1424,"BSTAR":0.00016229074,"MEAN_MOTION_DOT":0.00000117,"MEAN_MOTION_DDOT":0},{"OBJECT_NAME":"QIANFAN-116","OBJECT_ID":"2026-075H","EPOCH":"2026-07-20T04:53:22.255584","CLASSIFICATION_TYPE":"U","MEAN_MOTION":13.51015313,"ECCENTRICITY":0.00020817,"INCLINATION":88.991,"RA_OF_ASC_NODE":317.6092,"ARG_OF_PERICENTER":114.9596,"MEAN_ANOMALY":245.1772,"EPHEMERIS_TYPE":0,"NORAD_CAT_ID":68643,"ELEMENT_SET_NO":999,"REV_AT_EPOCH":1426,"BSTAR":0.00016978702,"MEAN_MOTION_DOT":0.00000122,"MEAN_MOTION_DDOT":0},{"OBJECT_NAME":"QIANFAN-117","OBJECT_ID":"2026-075J","EPOCH":"2026-07-20T06:22:14.384064","CLASSIFICATION_TYPE":"U","MEAN_MOTION":13.51013224,"ECCENTRICITY":0.00022226,"INCLINATION":88.9915,"RA_OF_ASC_NODE":317.6201,"ARG_OF_PERICENTER":110.612,"MEAN_ANOMALY":249.527,"EPHEMERIS_TYPE":0,"NORAD_CAT_ID":68644,"ELEMENT_SET_NO":999,"REV_AT_EPOCH":1427,"BSTAR":0.00014864381,"MEAN_MOTION_DOT":0.00000108,"MEAN_MOTION_DDOT":0},{"OBJECT_NAME":"QIANFAN-118","OBJECT_ID":"2026-075K","EPOCH":"2026-07-20T05:22:59.792160","CLASSIFICATION_TYPE":"U","MEAN_MOTION":13.51015082,"ECCENTRICITY":0.00019816,"INCLINATION":88.992,"RA_OF_ASC_NODE":317.6339,"ARG_OF_PERICENTER":103.3821,"MEAN_ANOMALY":256.7551,"EPHEMERIS_TYPE":0,"NORAD_CAT_ID":68645,"ELEMENT_SET_NO":999,"REV_AT_EPOCH":1426,"BSTAR":0.00015141,"MEAN_MOTION_DOT":0.0000011,"MEAN_MOTION_DDOT":0},{"OBJECT_NAME":"QIANFAN-119","OBJECT_ID":"2026-075L","EPOCH":"2026-07-20T06:34:07.884768","CLASSIFICATION_TYPE":"U","MEAN_MOTION":13.51021353,"ECCENTRICITY":0.00023447,"INCLINATION":88.992,"RA_OF_ASC_NODE":317.6245,"ARG_OF_PERICENTER":111.705,"MEAN_ANOMALY":248.4351,"EPHEMERIS_TYPE":0,"NORAD_CAT_ID":68646,"ELEMENT_SET_NO":999,"REV_AT_EPOCH":1427,"BSTAR":0.00015711872,"MEAN_MOTION_DOT":0.00000113,"MEAN_MOTION_DDOT":0},{"OBJECT_NAME":"QIANFAN-120","OBJECT_ID":"2026-075M","EPOCH":"2026-07-20T05:05:24.998496","CLASSIFICATION_TYPE":"U","MEAN_MOTION":13.51021878,"ECCENTRICITY":0.00024853,"INCLINATION":88.9921,"RA_OF_ASC_NODE":317.6163,"ARG_OF_PERICENTER":111.3075,"MEAN_ANOMALY":248.8342,"EPHEMERIS_TYPE":0,"NORAD_CAT_ID":68647,"ELEMENT_SET_NO":999,"REV_AT_EPOCH":1427,"BSTAR":0.00016975734,"MEAN_MOTION_DOT":0.00000122,"MEAN_MOTION_DDOT":0},{"OBJECT_NAME":"QIANFAN-121","OBJECT_ID":"2026-075N","EPOCH":"2026-07-20T07:27:28.481184","CLASSIFICATION_TYPE":"U","MEAN_MOTION":13.51013929,"ECCENTRICITY":0.00020571,"INCLINATION":88.9919,"RA_OF_ASC_NODE":317.6105,"ARG_OF_PERICENTER":103.2742,"MEAN_ANOMALY":256.8639,"EPHEMERIS_TYPE":0,"NORAD_CAT_ID":68648,"ELEMENT_SET_NO":999,"REV_AT_EPOCH":1428,"BSTAR":0.00016503106,"MEAN_MOTION_DOT":0.00000119,"MEAN_MOTION_DDOT":0},{"OBJECT_NAME":"QIANFAN-122","OBJECT_ID":"2026-075P","EPOCH":"2026-07-20T05:29:07.708416","CLASSIFICATION_TYPE":"U","MEAN_MOTION":13.51017452,"ECCENTRICITY":0.00022645,"INCLINATION":88.9918,"RA_OF_ASC_NODE":317.6166,"ARG_OF_PERICENTER":112.6056,"MEAN_ANOMALY":247.5335,"EPHEMERIS_TYPE":0,"NORAD_CAT_ID":68649,"ELEMENT_SET_NO":999,"REV_AT_EPOCH":1426,"BSTAR":0.00010342081,"MEAN_MOTION_DOT":7.9e-7,"MEAN_MOTION_DDOT":0},{"OBJECT_NAME":"QIANFAN-123","OBJECT_ID":"2026-075Q","EPOCH":"2026-07-20T06:28:26.765472","CLASSIFICATION_TYPE":"U","MEAN_MOTION":13.51015928,"ECCENTRICITY":0.00024154,"INCLINATION":88.9915,"RA_OF_ASC_NODE":317.6014,"ARG_OF_PERICENTER":116.6111,"MEAN_ANOMALY":243.5288,"EPHEMERIS_TYPE":0,"NORAD_CAT_ID":68650,"ELEMENT_SET_NO":999,"REV_AT_EPOCH":1425,"BSTAR":0.00014710903,"MEAN_MOTION_DOT":0.00000107,"MEAN_MOTION_DDOT":0},{"OBJECT_NAME":"QIANFAN-124","OBJECT_ID":"2026-075R","EPOCH":"2026-07-20T05:17:17.337984","CLASSIFICATION_TYPE":"U","MEAN_MOTION":13.51017175,"ECCENTRICITY":0.00022878,"INCLINATION":88.9917,"RA_OF_ASC_NODE":317.6162,"ARG_OF_PERICENTER":114.3722,"MEAN_ANOMALY":245.7668,"EPHEMERIS_TYPE":0,"NORAD_CAT_ID":68651,"ELEMENT_SET_NO":999,"REV_AT_EPOCH":1427,"BSTAR":0.00014638519,"MEAN_MOTION_DOT":0.00000107,"MEAN_MOTION_DDOT":0},{"OBJECT_NAME":"QIANFAN-125","OBJECT_ID":"2026-075S","EPOCH":"2026-07-20T05:34:54.507648","CLASSIFICATION_TYPE":"U","MEAN_MOTION":13.51014108,"ECCENTRICITY":0.00020298,"INCLINATION":88.9917,"RA_OF_ASC_NODE":317.6171,"ARG_OF_PERICENTER":103.8671,"MEAN_ANOMALY":256.2706,"EPHEMERIS_TYPE":0,"NORAD_CAT_ID":68652,"ELEMENT_SET_NO":999,"REV_AT_EPOCH":1427,"BSTAR":0.0001557555,"MEAN_MOTION_DOT":0.00000113,"MEAN_MOTION_DDOT":0},{"OBJECT_NAME":"QIANFAN-126","OBJECT_ID":"2026-075T","EPOCH":"2026-07-20T05:46:50.574432","CLASSIFICATION_TYPE":"U","MEAN_MOTION":13.51019213,"ECCENTRICITY":0.00024266,"INCLINATION":88.9921,"RA_OF_ASC_NODE":317.5832,"ARG_OF_PERICENTER":116.1416,"MEAN_ANOMALY":243.9985,"EPHEMERIS_TYPE":0,"NORAD_CAT_ID":68653,"ELEMENT_SET_NO":999,"REV_AT_EPOCH":1429,"BSTAR":0.00017136458,"MEAN_MOTION_DOT":0.00000123,"MEAN_MOTION_DDOT":0},{"OBJECT_NAME":"QIANFAN-127","OBJECT_ID":"2026-104A","EPOCH":"2026-07-19T05:16:47.251776","CLASSIFICATION_TYPE":"U","MEAN_MOTION":13.53173799,"ECCENTRICITY":0.0010486,"INCLINATION":88.9915,"RA_OF_ASC_NODE":338.1951,"ARG_OF_PERICENTER":13.9333,"MEAN_ANOMALY":346.2106,"EPHEMERIS_TYPE":0,"NORAD_CAT_ID":69073,"ELEMENT_SET_NO":999,"REV_AT_EPOCH":948,"BSTAR":-2.7853917,"MEAN_MOTION_DOT":-0.01743515,"MEAN_MOTION_DDOT":0},{"OBJECT_NAME":"QIANFAN-128","OBJECT_ID":"2026-104B","EPOCH":"2026-07-18T04:19:13.992384","CLASSIFICATION_TYPE":"U","MEAN_MOTION":13.49707511,"ECCENTRICITY":0.00096435,"INCLINATION":88.9887,"RA_OF_ASC_NODE":338.335,"ARG_OF_PERICENTER":351.9012,"MEAN_ANOMALY":8.1982,"EPHEMERIS_TYPE":0,"NORAD_CAT_ID":69074,"ELEMENT_SET_NO":999,"REV_AT_EPOCH":932,"BSTAR":-3.3011792,"MEAN_MOTION_DOT":-0.01942531,"MEAN_MOTION_DDOT":0}]}
